STARLINK-6088           
1 56098U 23046F   23245.33361504 -.00000150  00000+0  39441-5 0  9996
2 56098  43.0034 114.7616 0001184 284.3390  75.7321 15.02535203 23762
STARLINK-6093           
1 56099U 23046G   23245.32251296 -.00001137  00000+0 -69128-4 0  9993
2 56099  43.0039 114.6788 0001074 287.7118  72.3607 15.02535874 23764
STARLINK-6076           
1 56100U 23046H   23245.05326969  .00000981  00000+0  87689-4 0  9992
2 56100  43.0033 116.1000 0001219 265.2524  94.8179 15.02536916 23725
STARLINK-6095           
1 56101U 23046J   23245.51639535 -.00000050  00000+0  11347-4 0  9996
2 56101  43.0034 113.5514 0001222 270.6668  89.4035 15.02533906 23795
STARLINK-6075           
1 56102U 23046K   23245.52416844 -.00000058  00000+0  10750-4 0  9999
2 56102  43.0031 113.6102 0001074 272.6331  87.4389 15.02533387 23794
STARLINK-6096           
1 56103U 23046L   23245.51306841  .00000231  00000+0  32147-4 0  9990
2 56103  43.0029 113.5284 0001108 272.2740  87.7975 15.02533720 23795
STARLINK-6062           
1 56104U 23046M   23245.04994074  .00000944  00000+0  84965-4 0  9996
2 56104  43.0033 116.0690 0001209 275.3779  84.6926 15.02540009 23721
STARLINK-6066           
1 56105U 23046N   23245.36790078 -.00000034  00000+0  12557-4 0  9999
2 56105  43.0042 114.1563 0001173 278.7093  81.3616 15.02536793 23776
STARLINK-6078           
1 56106U 23046P   23245.10863787  .00003518  00000+0  27520-3 0  9994
2 56106  43.0032 115.6488 0001187 274.0251  86.0456 15.02555737 23737
STARLINK-6030           
1 56107U 23046Q   23245.36235670 -.00000422  00000+0 -16194-4 0  9996
2 56107  43.0034 114.1122 0001061 279.0568  81.0154 15.02530735 23771
STARLINK-6081           
1 56108U 23046R   23245.11085780  .00001028  00000+0  91151-4 0  9992
2 56108  43.0031 115.6658 0001133 274.2075  85.8638 15.02551611 23730
STARLINK-6083           
1 56109U 23046S   23245.36568002 -.00000096  00000+0  79893-5 0  9998
2 56109  43.0035 114.1355 0001109 282.4815  77.5903 15.02538567 23771
STARLINK-6082           
1 56110U 23046T   23245.37123841 -.00001647  00000+0 -10691-3 0  9992
2 56110  43.0007 114.1858 0000205 299.3861  60.6960 15.02530036 23773
STARLINK-6084           
1 56111U 23046U   23245.35124998  .00000054  00000+0  19095-4 0  9992
2 56111  43.0025 114.0269 0001178 272.4479  87.6228 15.02539003 23775
STARLINK-6080           
1 56112U 23046V   23245.35679859  .00000712  00000+0  67769-4 0  9996
2 56112  43.0037 114.0672 0001095 267.9047  92.1670 15.02539122 23779
STARLINK-6113           
1 56113U 23046W   23245.48088040  .00000500  00000+0  52075-4 0  9996
2 56113  43.0028 113.2799 0001072 273.3378  86.7341 15.02534241 23797
STARLINK-6103           
1 56114U 23046X   23245.36012564 -.00001442  00000+0 -91690-4 0  9996
2 56114  43.0050 114.0911 0000978 278.8812  81.1920 15.02542388 23776
STARLINK-6101           
1 56115U 23046Y   23245.34236880 -.00000451  00000+0 -18311-4 0  9992
2 56115  43.0039 113.9576 0001228 276.2200  83.8503 15.02540332 23774
STARLINK-6114           
1 56116U 23046Z   23245.48643815  .00000398  00000+0  44504-4 0  9999
2 56116  43.0036 113.3265 0001249 273.9252  86.1447 15.02532329 23797
STARLINK-6107           
1 56117U 23046AA  23245.47903547  .00000303  00000+0  37535-4 0  9992
2 56117  43.0035 101.1484 0001251 269.5293  90.5406 15.02534737 23939
STARLINK-6105           
1 56118U 23046AB  23245.47865999  .00000100  00000+0  22494-4 0  9994
2 56118  43.0029 113.2618 0001067 274.5950  85.4771 15.02534162 23791
STARLINK-6091           
1 56119U 23046AC  23245.00702865 -.00000043  00000+0  11895-4 0  9996
2 56119  43.0029 103.6290 0001154 270.2811  89.7899 15.02541903 23864
STARLINK-6079           
1 56120U 23046AD  23245.08238221  .00000919  00000+0  83056-4 0  9995
2 56120  43.0037 103.3334 0001375 276.0047  84.0638 15.02544805 23875
STARLINK-6092           
1 56121U 23046AE  23245.00936214 -.00015806  00000+0 -11802-2 0  9996
2 56121  43.0029 103.6467 0000900 250.4539 109.6206 15.01811899 23865
STARLINK-6094           
1 56122U 23046AF  23245.34125712 -.00001449  00000+0 -92172-4 0  9996
2 56122  43.0048 113.9511 0001428 273.3076  86.7604 15.02545359 23770
STARLINK-6115           
1 56123U 23046AH  23245.46349644 -.00000090  00000+0  84217-5 0  9994
2 56123  43.0019 101.0307 0001057 266.0052  94.0670 15.02532530 23931
STARLINK-6126           
1 56124U 23046AJ  23245.47792235 -.00002559  00000+0 -17436-3 0  9994
2 56124  43.0033 101.1426 0001231 266.0876  93.9825 15.02548925 23934
STARLINK-6119           
1 56125U 23046AK  23245.53330926 -.00000880  00000+0 -50074-4 0  9998
2 56125  43.0035 100.6977 0001301 271.9521  88.1172 15.02529478 23946
STARLINK-6124           
1 56126U 23046AL  23245.32832166 -.00000037  00000+0  12306-4 0  9998
2 56126  43.0009 101.7366 0001207 270.1275  89.9429 15.02533960 23916
STARLINK-6104           
1 56127U 23046AM  23245.31943820 -.00000373  00000+0 -12534-4 0  9995
2 56127  43.0042 101.6656 0001407 269.3721  90.6960 15.02540129 23917
STARLINK-6122           
1 56128U 23046AN  23245.46904778  .00000009  00000+0  15728-4 0  9993
2 56128  43.0012 101.0754 0000876 274.4035  85.6707 15.02534574 23934
STARLINK-6121           
1 56129U 23046AP  23245.58334491 -.00042990  00000+0 -23054-2 0  9992
2 56129  42.9998  53.2827 0001686 267.7884 140.3528 15.14340475  5862
STARLINK-6117           
1 56130U 23046AQ  23245.32499277  .00000664  00000+0  64255-4 0  9990
2 56130  43.0034 101.7123 0001405 273.6839  86.3842 15.02531588 23918
STARLINK-6120           
1 56131U 23046AR  23245.58334491  .00033623  00000+0  25478-2 0  9998
2 56131  43.0014 100.1128 0001535 268.1839 132.1159 15.01699796 24498
STARLINK-6071           
1 56132U 23046AS  23244.98927504 -.00000059  00000+0  10702-4 0  9999
2 56132  43.0031 103.4941 0001213 272.6780  87.3923 15.02532964 23869
STARLINK-5566           
1 56133U 23046AT  23245.57869068  .00000579  00000+0  57945-4 0  9992
2 56133  43.0019 100.1761 0001251 269.5138  90.5561 15.02536428 23957
STARLINK-5564           
1 56134U 23046AU  23245.11691993 -.00059898  00000+0 -44199-2 0  9998
2 56134  43.0020 102.7243 0002103 234.7171 125.3475 15.02848065 23887
STARLINK-5563           
1 56135U 23046AV  23245.53923348 -.00000247  00000+0 -28124-5 0  9994
2 56135  43.0018  61.6639 0001108 277.0572  83.0145 15.04489566 24396
STARLINK-5489           
1 56136U 23046AW  23245.57980510  .00000152  00000+0  26320-4 0  9991
2 56136  43.0028 100.1827 0001155 277.3577  82.7134 15.02532834 23956
STARLINK-5090           
1 56137U 23046AX  23245.29280891 -.00000485  00000+0 -20852-4 0  9991
2 56137  43.0024 101.4646 0000993 265.8751  94.1978 15.02527503 23917
STARLINK-4774           
1 56138U 23046AY  23245.04131602  .00000120  00000+0  23923-4 0  9996
2 56138  43.0032 103.0229 0001042 267.3240  92.7483 15.02542878 23870
STARLINK-5378           
1 56139U 23046AZ  23245.09892863  .00011893  00000+0  89501-3 0  9997
2 56139  43.0032 102.5909 0000907 274.6692  85.4046 15.02490985 23887
STARLINK-5375           
1 56140U 23046BA  23245.57083221  .00058502  00000+0  43448-2 0  9999
2 56140  43.0029 100.1139 0001531 263.3231  96.7437 15.02229734 23951
STARLINK-5377           
1 56141U 23046BB  23245.29058505 -.00000833  00000+0 -46568-4 0  9990
2 56141  43.0034 101.4476 0001207 272.6820  87.3884 15.02533817 23911
STARLINK-5376           
1 56142U 23046BC  23245.30151680  .00055238  00000+0  41090-2 0  9991
2 56142  43.0037 101.5337 0001718 270.7158  89.3488 15.02194008 23919
STARLINK-5016           
1 56143U 23046BD  23245.48335855 -.00000904  00000+0 -51851-4 0  9999
2 56143  43.0038 100.3129 0001244 265.6511  94.4189 15.02530695 23941
STARLINK-5374           
1 56144U 23046BE  23245.42909010 -.00000116  00000+0  65127-5 0  9990
2 56144  43.0029 100.7711 0001189 270.1884  89.8822 15.02532203 23933
STARLINK-5370           
1 56145U 23046BF  23245.58334491 -.00017220  00000+0 -12624-2 0  9999
2 56145  43.0013  61.3728 0001460 260.9840 359.9226 15.02547252  5858
STARLINK-5111           
1 56146U 23046BG  23245.08781474 -.00000769  00000+0 -41823-4 0  9997
2 56146  43.0038 102.5059 0001313 263.6105  96.4588 15.02542971 23882
STARLINK-5140           
1 56147U 23046BH  23245.52962675  .00000030  00000+0  17276-4 0  9995
2 56147  43.0007  61.5872 0000484 287.3544  72.7246 15.02528479 24396
STARLINK-5089           
1 56148U 23046BJ  23245.53295874 -.00000088  00000+0  85513-5 0  9991
2 56148  43.0002  61.6135 0001053 272.3535  87.7187 15.02531232 24393
STARLINK-30107          
1 56287U 23056B   23245.21052884  .00003633  00000+0  28388-3 0  9996
2 56287  43.0028 166.1811 0001225 266.3946  93.6756 15.02538854 21760
STARLINK-30106          
1 56288U 23056C   23245.21275276 -.00000198  00000+0  45503-6 0  9994
2 56288  43.0009 166.2101 0001615 270.4810  89.5848 15.02540956 21719
STARLINK-30095          
1 56289U 23056D   23245.12136148  .00001805  00000+0  14137-3 0  9990
2 56289  43.0016 141.0874 0001503 276.6212  83.4460 15.04490429 21990
STARLINK-30103          
1 56290U 23056E   23245.20942255  .00008560  00000+0  64831-3 0  9996
2 56290  43.0023 166.1854 0001171 252.5526 107.5188 15.02515522 21713
STARLINK-30113          
1 56291U 23056F   23245.21607804  .00000994  00000+0  88606-4 0  9996
2 56291  43.0019 166.2247 0001227 264.3332  95.7371 15.02546124 21718
STARLINK-30098          
1 56292U 23056G   23245.47200729 -.00001717  00000+0 -11207-3 0  9998
2 56292  43.0010 164.7025 0001297 280.6744  79.3952 15.02533563 21752
STARLINK-30090          
1 56293U 23056H   23245.47422292  .00005365  00000+0  41192-3 0  9997
2 56293  43.0025 164.7196 0001355 268.9946  91.0741 15.02538952 21750
STARLINK-30049          
1 56294U 23056J   23245.19065912  .00000477  00000+0  50384-4 0  9992
2 56294  43.0009 166.8290 0001255 274.4368  85.6331 15.02547663 21708
